[{"OBJECT_NAME":"STARLINK-30138","OBJECT_ID":"2023-119D","EPOCH":"2026-03-09T22:00:01.999584","MEAN_MOTION":15.18642851,"ECCENTRICITY":0.00018596,"INCLINATION":42.9999,"RA_OF_ASC_NODE":79.8718,"ARG_OF_PERICENTER":289.7166,"MEAN_ANOMALY":152.9836,"EPHEMERIS_TYPE":0,"CLASSIFICATION_TYPE":"U","NORAD_CAT_ID":57605,"ELEMENT_SET_NO":999,"REV_AT_EPOCH":578,"BSTAR":0.055933953,"MEAN_MOTION_DOT":0.01276737,"MEAN_MOTION_DDOT":0},{"OBJECT_NAME":"FLOCK 4G-23","OBJECT_ID":"2025-009AQ","EPOCH":"2026-03-09T17:11:57.175872","MEAN_MOTION":15.27262579,"ECCENTRICITY":9.048e-5,"INCLINATION":97.3979,"RA_OF_ASC_NODE":150.9478,"ARG_OF_PERICENTER":7.2707,"MEAN_ANOMALY":352.8545,"EPHEMERIS_TYPE":0,"CLASSIFICATION_TYPE":"U","NORAD_CAT_ID":62647,"ELEMENT_SET_NO":999,"REV_AT_EPOCH":6372,"BSTAR":0.00046815788,"MEAN_MOTION_DOT":0.0001244,"MEAN_MOTION_DDOT":0}]
